OSCAR 7 (AO-7)          
1 07530U 74089B   18253.00204896 -.00000046  00000-0 -88674-5 0  9991
2 07530 101.6965 219.0797 0012027 169.3383 242.6400 12.53634288  5224
UOSAT 2 (UO-11)         
1 14781U 84021B   18253.55415588  .00000045  00000-0  11723-4 0  9993
2 14781  97.6429 286.0976 0009106 154.0768 206.0904 14.83028528857096
LUSAT (LO-19)           
1 20442U 90005G   18252.77475176 -.00000005  00000-0  14344-4 0  9994
2 20442  98.6136 190.7632 0010595 260.4167  99.5820 14.32903912495949
ITAMSAT (IO-26)         
1 22826U 93061D   18252.94906196 -.00000021  00000-0  97583-5 0  9992
2 22826  98.8653 230.6635 0010057  89.1008 271.1326 14.30370594301625
RADIO ROSTO (RS-15)     
1 23439U 94085A   18253.21370900 -.00000063  00000-0 -59603-3 0  9995
2 23439  64.8154 211.3225 0154480 166.7233 290.7051 11.27568464976311
JAS-2 (FO-29)           
1 24278U 96046B   18252.74746520 -.00000028  00000-0  10176-4 0  9991
2 24278  98.5154  79.8464 0349386 251.4578 104.8311 13.53085521 89671
TECHSAT 1B (GO-32)      
1 25397U 98043D   18252.86172123 -.00000025  00000-0  82540-5 0  9990
2 25397  98.6539 191.9180 0002220 112.0803 248.0612 14.23650873 47775
ISS (ZARYA)             
1 25544U 98067A   18253.69532416  .00001377  00000-0  28335-4 0  9998
2 25544  51.6423 312.5772 0005031 142.5190   7.0136 15.53832339131814
PCSAT (NO-44)           
1 26931U 01043C   18253.51242075 -.00000054  00000-0  10919-4 0  9998
2 26931  67.0531   9.2407 0007561 262.3191  97.7052 14.30515957884752
SAUDISAT 1C (SO-50)     
1 27607U 02058C   18252.93545576 -.00000046  00000-0  14440-4 0  9997
2 27607  64.5548 190.9749 0073390 310.5974  48.8757 14.75477695845333
CUTE-1 (CO-55)          
1 27844U 03031E   18252.94965201  .00000040  00000-0  37814-4 0  9997
2 27844  98.6877 260.3575 0010771 122.7967 237.4250 14.22131859788204
CUBESAT XI-IV (CO-57)   
1 27848U 03031J   18252.93263123  .00000025  00000-0  31312-4 0  9994
2 27848  98.6962 260.7664 0010533 132.5475 227.6593 14.21733722788077
MOZHAYETS 4 (RS-22)     
1 27939U 03042A   18253.52185256  .00000060  00000-0  19383-4 0  9996
2 27939  98.0027  30.5119 0011868 234.6435 194.0949 14.66712826799327
CUBESAT XI-V (CO-58)    
1 28895U 05043F   18253.12009245  .00000090  00000-0  26079-4 0  9993
2 28895  97.9208  41.1921 0017399 156.9085 203.2904 14.63578377686304
CUTE-1.7+APD II (CO-65) 
1 32785U 08021C   18253.17250915  .00000136  00000-0  20327-4 0  9993
2 32785  97.5476 261.2942 0014540 113.9288 246.3454 14.88169940561816
DELFI-C3 (DO-64)        
1 32789U 08021G   18253.21489887  .00000887  00000-0  64463-4 0  9996
2 32789  97.5050 305.8449 0012539  15.7001 344.4612 15.06282075564582
SEEDS II (CO-66)        
1 32791U 08021J   18253.52480536  .00000305  00000-0  36419-4 0  9990
2 32791  97.5348 267.1737 0015015  94.1476 266.1459 14.90621265562222
YUBILEINY (RS-30)       
1 32953U 08025A   18253.51364829  .00000033  00000-0  16578-3 0  9990
2 32953  82.5046 319.6184 0019268  27.4595 332.7499 12.43085280467376
KKS-1 (KISEKI)          
1 33499U 09002H   18253.49806485  .00000057  00000-0  16543-4 0  9997
2 33499  98.3584  78.0486 0009789  28.6057 331.5686 14.75359583517769
SWISSCUBE               
1 35932U 09051B   18253.36586077  .00000079  00000-0  28918-4 0  9996
2 35932  98.5568  46.6281 0006713 315.0266  45.0387 14.56192002475836
BEESAT                  
1 35933U 09051C   18252.97489022  .00000071  00000-0  27126-4 0  9997
2 35933  98.5604  47.8280 0005161 333.7219  26.3715 14.56292264475884
ITUPSAT 1               
1 35935U 09051E   18252.94016667  .00000061  00000-0  25262-4 0  9995
2 35935  98.5717  48.0435 0007383 325.9320  34.1401 14.55465810475629
XIWANG-1 (HOPE-1)       
1 36122U 09072B   18252.90998906 -.00000011  00000-0  82047-4 0  9998
2 36122 100.0752 263.5769 0006797 278.0224  82.0119 13.16346258419692
JUGNU                   
1 37839U 11058B   18252.26997237  .00000315  00000-0  26177-4 0  9994
2 37839  19.9605 247.3870 0019174  93.7663  17.2060 14.12627988357277
SRMSAT                  
1 37841U 11058D   18253.47567253  .00000310  00000-0  25176-4 0  9995
2 37841  19.9720 291.0402 0011899 348.6584 149.8420 14.10613536356931
M-CUBED & EXP-1 PRIME   
1 37855U 11061F   18253.52828676  .00001296  00000-0  73534-4 0  9994
2 37855 101.7148 359.7136 0176046 189.5771 170.2069 15.04647942374481
STRAND-1                
1 39090U 13009E   18252.82553917  .00000006  00000-0  17318-4 0  9992
2 39090  98.5143  98.0780 0010185  50.6025 309.6060 14.35039303289945
SOMP                    
1 39134U 13015E   18253.37773128  .00000648  00000-0  39874-4 0  9990
2 39134  64.8631 211.2879 0004073 257.7351 102.3320 15.19382749297844
BEESAT-3                
1 39135U 13015F   18252.55163616  .00000472  00000-0  33832-4 0  9998
2 39135  64.8688 228.4247 0016321 232.2019 127.7630 15.16853555297440
BEESAT-2                
1 39136U 13015G   18252.41940452  .00000672  00000-0  44543-4 0  9998
2 39136  64.8687 231.8635 0016151 233.4562 126.5077 15.16309927297368
ZACUBE-1 (TSHEPISOSAT)  
1 39417U 13066B   18253.10906615  .00000147  00000-0  25089-4 0  9997
2 39417  97.5829 277.1925 0057784 236.1506 123.4200 14.80975337259367
GOMX 1                  
1 39430U 13066Q   18253.54455005  .00000147  00000-0  35259-4 0  9992
2 39430  97.7061 224.3083 0152873  61.3761 300.2720 14.59119881255602
CUBEBUG-2 (LO-74)       
1 39440U 13066AA  18253.10143755  .00000136  00000-0  26214-4 0  9990
2 39440  97.6011 263.2902 0078911 279.9778  79.2534 14.75716261258448
FUNCUBE-1 (AO-73)       
1 39444U 13066AE  18253.12746490  .00000186  00000-0  29465-4 0  9997
2 39444  97.5834 278.8420 0057023 230.9984 128.6144 14.81767571258238
UWE-3                   
1 39446U 13066AG  18252.91103755  .00000134  00000-0  24709-4 0  9995
2 39446  97.5904 269.6334 0068630 259.2407 100.1073 14.78250623257045
SPROUT                  
1 39770U 14029E   18253.31780612  .00000438  00000-0  55145-4 0  9998
2 39770  97.8785 353.6755 0008229 294.3311  65.7050 14.86958337233016
UNISAT-6                
1 40012U 14033C   18253.21373102  .00000125  00000-0  26284-4 0  9990
2 40012  97.7953 126.2792 0057080 286.0112  73.4814 14.73859951227222
DUCHIFAT-1              
1 40021U 14033M   18253.32588297  .00000354  00000-0  42266-4 0  9997
2 40021  97.9128 172.1904 0011486 257.6172 102.3760 14.90379852229638
FUNCUBE-3 (EO-79)       
1 40025U 14033R   18253.50656243  .00000198  00000-0  27227-4 0  9994
2 40025  97.9007 168.7152 0011019 264.8082  95.1877 14.88768261229480
NUDT-PHONESAT           
1 40900U 15049B   18253.53949941  .00001351  00000-0  62758-4 0  9997
2 40900  97.4420 260.8259 0015166  90.5189 269.7785 15.21638800164890
ZDPS 2A                 
1 40901U 15049C   18253.48853757  .00000529  00000-0  29897-4 0  9994
2 40901  97.4603 258.5138 0015400  99.9628 260.3344 15.17231156164599
ZDPS 2B                 
1 40902U 15049D   18253.53984393  .00000515  00000-0  29359-4 0  9990
2 40902  97.4509 256.4512 0015490  97.3174 262.9821 15.17022121164582
XW-2A                   
1 40903U 15049E   18253.45586597  .00001248  00000-0  32459-4 0  9995
2 40903  97.3776 289.1407 0015832  83.7394 276.5655 15.40797758166935
KAITUO 1A               
1 40904U 15049F   18253.55291624  .00000583  00000-0  34546-4 0  9991
2 40904  97.4608 255.5569 0016319 100.2051  54.7282 15.15102139164422
2015-049G               
1 40905U 15049G   18253.53983238  .00000238  00000-0  16612-4 0  9990
2 40905  97.4621 253.4817 0017494  95.0967 265.2262 15.14045021164335
XW-2C                   
1 40906U 15049H   18253.50691012  .00000397  00000-0  24529-4 0  9996
2 40906  97.4626 255.4499 0016727  93.9280 266.3865 15.15299614164412
XW-2D                   
1 40907U 15049J   18253.51665749  .00000440  00000-0  26710-4 0  9999
2 40907  97.4601 255.1475 0016093  91.8407 268.4668 15.15458696164423
LILACSAT 2              
1 40908U 15049K   18253.49571448  .00000214  00000-0  15531-4 0  9997
2 40908  97.4716 254.3735 0017736  94.4417 265.8841 15.13577111164275
XW-2F                   
1 40910U 15049M   18253.52856315  .00000683  00000-0  38145-4 0  9999
2 40910  97.4597 256.6299 0016815  87.3448 272.9710 15.16704689164399
XW-2B                   
1 40911U 15049N   18253.53738580  .00000418  00000-0  25564-4 0  9991
2 40911  97.4634 255.7366 0015998  92.2817 268.0247 15.15399901164323
KAITUO 1B               
1 40912U 15049P   18253.40698899  .00001073  00000-0  54457-4 0  9997
2 40912  97.4518 259.5420 0017044  75.2967  32.4170 15.18945849164609
TIANWANG 1C (TW-1C)     
1 40926U 15051B   18253.87396991  .00006257  00000-0  11190-3 0  9999
2 40926  97.1757 295.8505 0008484 334.9416  12.3909 15.50327343166579
TIANWANG 1A (TW-1A)     
1 40928U 15051D   18253.58726013  .00002235  00000-0  59611-4 0  9994
2 40928  97.1801 285.8786 0012211  21.3104 100.8539 15.39128026165918
LAPAN-A2 (IO-86)        
1 40931U 15052B   18253.50216492  .00000699  00000-0  83369-5 0  9996
2 40931   6.0005 261.7834 0012531 137.2987 222.8357 14.76584089159635
E-ST@R-II               
1 41459U 16025D   18253.44088956  .00000529  00000-0  32186-4 0  9990
2 41459  98.1314 320.6346 0169271 222.0051 136.8062 15.04615595130240
AAUSAT 4                
1 41460U 16025E   18253.26914275  .00002112  00000-0  11228-3 0  9997
2 41460  98.1204 321.0901 0160677 218.4190 140.5482 15.06137373130294
NUSAT 1 (LO-87)         
1 41557U 16033B   18253.32578659  .00000786  00000-0  32370-4 0  9999
2 41557  97.4347 337.3114 0012824 204.9785 155.0835 15.27054817127155
BEESAT-4                
1 41619U 16040W   18252.86697683  .00000883  00000-0  41304-4 0  9998
2 41619  97.4075 314.8176 0009987 297.0977  62.9240 15.22343070110977
ALSAT 1N                
1 41789U 16059G   18253.38165570  .00000054  00000-0  19411-4 0  9993
2 41789  98.1113 314.9271 0028458 176.8675 183.2711 14.64177645104483
CAS-2T & KS-1Q          
1 41847U 16066G   18252.93645118  .00000020  00000-0  13942-4 0  9993
2 41847  98.7448 283.5837 0366012 352.8732   6.7330 14.37919584 96500
NAYIF-1 (EO-88)         
1 42017U 17008BX  18253.42131074  .00000959  00000-0  41715-4 0  9996
2 42017  97.4410 317.9496 0008065  83.2468 276.9687 15.24679894 87050
LILACSAT-1              
1 42725U 98067ME  18253.52142153  .00021960  00000-0  15761-3 0  9993
2 42725  51.6337 281.6014 0001683 175.3355 184.7660 15.73584923 73948
MAX VALIER SAT          
1 42778U 17036P   18253.22313634  .00000641  00000-0  31511-4 0  9994
2 42778  97.3957 311.4947 0014046 127.7576 232.4935 15.21466322 67439
FOX-1B (AO-91)          
1 43017U 17073E   18253.23790262  .00000689  00000-0  59630-4 0  9993
2 43017  97.7078 180.8293 0259455 355.1159   4.7526 14.78182217 43670
FOX-1D (AO-92)          
1 43137U 18004AC  18252.73348222  .00000668  00000-0  31585-4 0  9996
2 43137  97.5262 315.6390 0010139 155.8681 204.3032 15.22873157 36572
